NOAA 1 [-]              
1 04793U 70106A   23002.95437300 -.00000034  00000+0  59061-4 0  9997
2 04793 101.5308  66.5314 0031273 293.7478 239.7773 12.54010318382594
NOAA 2 (ITOS-D) [-]     
1 06235U 72082A   23002.74943280 -.00000011  00000+0  22197-3 0  9995
2 06235 101.9766 351.3868 0004205  54.5957 118.5601 12.53155576296939
NOAA 3 [-]              
1 06920U 73086A   23003.23920472 -.00000026  00000+0  15170-3 0  9993
2 06920 102.2315 350.5323 0006515 284.0937  86.4187 12.40351678225745
NOAA 4 [-]              
1 07529U 74089A   23002.72736949 -.00000013  00000+0  20876-3 0  9995
2 07529 101.9389 348.1241 0009157  82.4283  90.0568 12.53164037201506
NOAA 5 [-]              
1 09057U 76077A   23002.65233144 -.00000016  00000+0  22678-3 0  9998
2 09057 102.1301 333.7236 0009677 130.4627  43.5697 12.37777905 98380
TIROS N [-]             
1 11060U 78096A   23003.61219385  .00000211  00000+0  12300-3 0  9993
2 11060  98.6095  56.7773 0009537 288.5214  71.4925 14.18458309500226
NOAA 6 [-]              
1 11416U 79057A   23003.05550216  .00000322  00000+0  13167-3 0  9990
2 11416  98.6597  19.1908 0010897  34.8644 325.3252 14.33867265270333
NOAA 7 [-]              
1 12553U 81059A   23003.08136546  .00000042  00000+0  43484-4 0  9992
2 12553  98.9731  54.7045 0010497 267.6391  92.3582 14.17365236146294
NOAA 8 [-]              
1 13923U 83022A   23003.21285203  .00000208  00000+0  99920-4 0  9996
2 13923  98.7023 358.1420 0014894 349.4672  10.6196 14.28874228 71190
NOAA 9 [-]              
1 15427U 84123A   23003.23772678  .00000177  00000+0  11258-3 0  9991
2 15427  99.0716 344.0181 0014302 322.5794  48.3821 14.16262770965121
NOAA 10 [-]             
1 16969U 86073A   23003.24437671  .00000182  00000+0  90517-4 0  9993
2 16969  98.5881 350.9253 0013287  87.2341 284.1757 14.28261270889614
NOAA 11 [-]             
1 19531U 88089A   23002.70273309  .00000083  00000+0  63550-4 0  9993
2 19531  98.4457 346.0420 0010581 329.9225  30.1341 14.15343669769000
NOAA 12 [-]             
1 21263U 91032A   23003.53409177  .00000115  00000+0  65994-4 0  9996
2 21263  98.5236   2.8422 0014685 112.2874 247.9865 14.26041503645503
NOAA 13 [-]             
1 22739U 93050A   23003.36552362  .00000169  00000+0  11290-3 0  9991
2 22739  98.5310 338.4506 0010314 127.2316 232.9800 14.12896942515529
NOAA 14 [-]             
1 23455U 94089A   23003.56720584  .00000061  00000+0  53389-4 0  9992
2 23455  98.4343  24.3088 0010585 107.3806 252.8527 14.14228081445231
NOAA 15 [B]             
1 25338U 98030A   23003.57898306  .00000179  00000+0  92940-4 0  9999
2 25338  98.6250  35.3032 0011383  76.0104 284.2341 14.26216051281792
NOAA 16 [-]             
1 26536U 00055A   23002.89400315  .00000069  00000+0  59443-4 0  9992
2 26536  98.6105  59.6445 0009732 320.6022  39.4442 14.13370461445528
NOAA 17 [-]             
1 27453U 02032A   23003.59547415  .00000185  00000+0  97374-4 0  9993
2 27453  98.6970 311.7434 0012734  53.0274 307.2069 14.25185543 67371
NOAA 18 [B]             
1 28654U 05018A   23003.63140739  .00000225  00000+0  14497-3 0  9996
2 28654  98.9295  78.7072 0015124 124.2886 235.9720 14.12832223908333
NOAA 19 [+]             
1 33591U 09005A   23003.58484943  .00000193  00000+0  12923-3 0  9990
2 33591  99.1248  46.6958 0013636 349.7462  10.3429 14.12660554716702
SUOMI NPP [+]           
1 37849U 11061A   23003.61029825  .00000105  00000+0  70567-4 0  9995
2 37849  98.7539 304.5538 0001368  84.6217  88.0513 14.19531330579587
NOAA 20 [+]             
1 43013U 17073A   23003.61075899  .00000072  00000+0  54952-4 0  9999
2 43013  98.7377 304.1983 0001067 115.9554 244.1732 14.19540950265628
NOAA 21 (JPSS-2) [+]    
1 54234U 22150A   23003.20567855  .00000116  00000+0  75441-4 0  9996
2 54234  98.7016 303.8791 0001114  85.9411 274.1893 14.19551171  7643
